{
  "type": "FeatureCollection",
  "features": [
    {
      "type": "Feature",
      "properties": {
        "norad_id": 55973,
        "name": "TIANMU-1 03",
        "group": "weather",
        "lat": -12.296103925839624,
        "lon": -16.714993944780083,
        "alt_km": 449.08565176730735,
        "timestamp": "2025-12-27T20:30:58.932052+00:00",
        "meta_object_name": "TIANMU-1 03",
        "meta_object_id": "2023-039A",
        "meta_epoch": "2025-12-27T11:53:40.114752",
        "meta_mean_motion": 15.4136734,
        "meta_eccentricity": 0.0003652,
        "meta_inclination": 97.5114,
        "meta_ra_of_asc_node": 164.5636,
        "meta_arg_of_pericenter": 17.5188,
        "meta_mean_anomaly": 342.6184,
        "meta_ephemeris_type": 0,
        "meta_classification_type": "U",
        "meta_norad_cat_id": 55973,
        "meta_element_set_no": 999,
        "meta_rev_at_epoch": 15433,
        "meta_bstar": 0.00042443,
        "meta_mean_motion_dot": 0.00017649,
        "meta_mean_motion_ddot": 0,
        "tle_line1": "1 55973U 23039A   25361.49560318  .00017649  00000+0  42443-3 0  9995",
        "tle_line2": "2 55973  97.5114 164.5636 0003652  17.5188 342.6184 15.41367340154333"
      },
      "geometry": {
        "type": "Point",
        "coordinates": [
          -16.714993944780083,
          -12.296103925839624
        ]
      }
    },
    {
      "type": "Feature",
      "properties": {
        "norad_id": 55974,
        "name": "TIANMU-1 04",
        "group": "weather",
        "lat": -35.0328812894154,
        "lon": 169.42081653870707,
        "alt_km": 445.30781254387966,
        "timestamp": "2025-12-27T20:30:58.932063+00:00",
        "meta_object_name": "TIANMU-1 04",
        "meta_object_id": "2023-039B",
        "meta_epoch": "2025-12-27T12:52:51.057984",
        "meta_mean_motion": 15.41713526,
        "meta_eccentricity": 0.0004231,
        "meta_inclination": 97.5045,
        "meta_ra_of_asc_node": 163.791,
        "meta_arg_of_pericenter": 10.4052,
        "meta_mean_anomaly": 349.7281,
        "meta_ephemeris_type": 0,
        "meta_classification_type": "U",
        "meta_norad_cat_id": 55974,
        "meta_element_set_no": 999,
        "meta_rev_at_epoch": 15434,
        "meta_bstar": 0.00043503,
        "meta_mean_motion_dot": 0.00018304,
        "meta_mean_motion_ddot": 0,
        "tle_line1": "1 55974U 23039B   25361.53670206  .00018304  00000+0  43503-3 0  9996",
        "tle_line2": "2 55974  97.5045 163.7910 0004231  10.4052 349.7281 15.41713526154347"
      },
      "geometry": {
        "type": "Point",
        "coordinates": [
          169.42081653870707,
          -35.0328812894154
        ]
      }
    },
    {
      "type": "Feature",
      "properties": {
        "norad_id": 55975,
        "name": "TIANMU-1 05",
        "group": "weather",
        "lat": -24.126690908834334,
        "lon": 167.99789707814764,
        "alt_km": 446.52276475060717,
        "timestamp": "2025-12-27T20:30:58.932073+00:00",
        "meta_object_name": "TIANMU-1 05",
        "meta_object_id": "2023-039C",
        "meta_epoch": "2025-12-27T12:49:52.286880",
        "meta_mean_motion": 15.41324595,
        "meta_eccentricity": 0.0003823,
        "meta_inclination": 97.5092,
        "meta_ra_of_asc_node": 164.2817,
        "meta_arg_of_pericenter": 37.6178,
        "meta_mean_anomaly": 322.5335,
        "meta_ephemeris_type": 0,
        "meta_classification_type": "U",
        "meta_norad_cat_id": 55975,
        "meta_element_set_no": 999,
        "meta_rev_at_epoch": 15432,
        "meta_bstar": 0.00042633,
        "meta_mean_motion_dot": 0.00017704,
        "meta_mean_motion_ddot": 0,
        "tle_line1": "1 55975U 23039C   25361.53463295  .00017704  00000+0  42633-3 0  9991",
        "tle_line2": "2 55975  97.5092 164.2817 0003823  37.6178 322.5335 15.41324595154329"
      },
      "geometry": {
        "type": "Point",
        "coordinates": [
          167.99789707814764,
          -24.126690908834334
        ]
      }
    },
    {
      "type": "Feature",
      "properties": {
        "norad_id": 55976,
        "name": "TIANMU-1 06",
        "group": "weather",
        "lat": -44.146003765706595,
        "lon": 172.44575484916683,
        "alt_km": 446.884564709766,
        "timestamp": "2025-12-27T20:30:58.932118+00:00",
        "meta_object_name": "TIANMU-1 06",
        "meta_object_id": "2023-039D",
        "meta_epoch": "2025-12-27T12:55:16.294656",
        "meta_mean_motion": 15.41764451,
        "meta_eccentricity": 0.000407,
        "meta_inclination": 97.5103,
        "meta_ra_of_asc_node": 164.763,
        "meta_arg_of_pericenter": 31.0323,
        "meta_mean_anomaly": 329.1163,
        "meta_ephemeris_type": 0,
        "meta_classification_type": "U",
        "meta_norad_cat_id": 55976,
        "meta_element_set_no": 999,
        "meta_rev_at_epoch": 15434,
        "meta_bstar": 0.00043372,
        "meta_mean_motion_dot": 0.00018279,
        "meta_mean_motion_ddot": 0,
        "tle_line1": "1 55976U 23039D   25361.53838304  .00018279  00000+0  43372-3 0  9998",
        "tle_line2": "2 55976  97.5103 164.7630 0004070  31.0323 329.1163 15.41764451154349"
      },
      "geometry": {
        "type": "Point",
        "coordinates": [
          172.44575484916683,
          -44.146003765706595
        ]
      }
    },
    {
      "type": "Feature",
      "properties": {
        "norad_id": 56232,
        "name": "FENGYUN 3G",
        "group": "weather",
        "lat": 49.75264720728252,
        "lon": -127.66877086789607,
        "alt_km": 405.3445677168802,
        "timestamp": "2025-12-27T20:30:58.932145+00:00",
        "meta_object_name": "FENGYUN 3G",
        "meta_object_id": "2023-055A",
        "meta_epoch": "2025-12-27T12:25:30.828288",
        "meta_mean_motion": 15.52206199,
        "meta_eccentricity": 0.0003927,
        "meta_inclination": 49.9925,
        "meta_ra_of_asc_node": 151.2053,
        "meta_arg_of_pericenter": 299.9818,
        "meta_mean_anomaly": 60.0759,
        "meta_ephemeris_type": 0,
        "meta_classification_type": "U",
        "meta_norad_cat_id": 56232,
        "meta_element_set_no": 999,
        "meta_rev_at_epoch": 15332,
        "meta_bstar": 0.00051746,
        "meta_mean_motion_dot": 0.00031667,
        "meta_mean_motion_ddot": 0,
        "tle_line1": "1 56232U 23055A   25361.51771792  .00031667  00000+0  51746-3 0  9997",
        "tle_line2": "2 56232  49.9925 151.2053 0003927 299.9818  60.0759 15.52206199153323"
      },
      "geometry": {
        "type": "Point",
        "coordinates": [
          -127.66877086789607,
          49.75264720728252
        ]
      }
    },
    {
      "type": "Feature",
      "properties": {
        "norad_id": 57166,
        "name": "METEOR-M2 3",
        "group": "weather",
        "lat": -67.50969141959413,
        "lon": 76.6631097637759,
        "alt_km": 817.0304038558697,
        "timestamp": "2025-12-27T20:30:58.932158+00:00",
        "meta_object_name": "METEOR-M2 3",
        "meta_object_id": "2023-091A",
        "meta_epoch": "2025-12-27T12:24:31.963968",
        "meta_mean_motion": 14.24027861,
        "meta_eccentricity": 0.0003144,
        "meta_inclination": 98.6356,
        "meta_ra_of_asc_node": 54.7969,
        "meta_arg_of_pericenter": 321.7952,
        "meta_mean_anomaly": 38.3004,
        "meta_ephemeris_type": 0,
        "meta_classification_type": "U",
        "meta_norad_cat_id": 57166,
        "meta_element_set_no": 999,
        "meta_rev_at_epoch": 13008,
        "meta_bstar": 2.5739e-05,
        "meta_mean_motion_dot": 1.6e-07,
        "meta_mean_motion_ddot": 0,
        "tle_line1": "1 57166U 23091A   25361.51703662  .00000016  00000+0  25739-4 0  9993",
        "tle_line2": "2 57166  98.6356  54.7969 0003144 321.7952  38.3004 14.24027861130080"
      },
      "geometry": {
        "type": "Point",
        "coordinates": [
          76.6631097637759,
          -67.50969141959413
        ]
      }
    },
    {
      "type": "Feature",
      "properties": {
        "norad_id": 57399,
        "name": "TIANMU-1 07",
        "group": "weather",
        "lat": 15.23773524608072,
        "lon": 49.37399447149404,
        "alt_km": 478.86978548456045,
        "timestamp": "2025-12-27T20:30:58.932173+00:00",
        "meta_object_name": "TIANMU-1 07",
        "meta_object_id": "2023-101A",
        "meta_epoch": "2025-12-27T12:35:32.636256",
        "meta_mean_motion": 15.28285362,
        "meta_eccentricity": 0.0004831,
        "meta_inclination": 97.2858,
        "meta_ra_of_asc_node": 51.0483,
        "meta_arg_of_pericenter": 43.0491,
        "meta_mean_anomaly": 317.1126,
        "meta_ephemeris_type": 0,
        "meta_classification_type": "U",
        "meta_norad_cat_id": 57399,
        "meta_element_set_no": 999,
        "meta_rev_at_epoch": 13541,
        "meta_bstar": 0.00028985,
        "meta_mean_motion_dot": 7.917e-05,
        "meta_mean_motion_ddot": 0,
        "tle_line1": "1 57399U 23101A   25361.52468329  .00007917  00000+0  28985-3 0  9994",
        "tle_line2": "2 57399  97.2858  51.0483 0004831  43.0491 317.1126 15.28285362135419"
      },
      "geometry": {
        "type": "Point",
        "coordinates": [
          49.37399447149404,
          15.23773524608072
        ]
      }
    }
  ]
}